NORAD_CAT_ID,OBJECT_NAME,OBJECT_TYPE,EPOCH,MEAN_MOTION,ECCENTRICITY,INCLINATION,RA_OF_ASC_NODE,ARG_OF_PERICENTER,MEAN_ANOMALY,BSTAR,MEAN_MOTION_DOT,MEAN_MOTION_DDOT,TLE_LINE0,TLE_LINE1,TLE_LINE2,SEMIMAJOR_AXIS,PERIOD,APOGEE,PERIGEE,DECAYED
54803.0,STARLINK-5430,PAYLOAD,2023-08-03 17:38:23,15.08842248,0.000102,53.218,343.8108,86.7889,273.322,0.00010163,1.33e-05,0.0,0 STARLINK-5430,1 54803U 22175AX  23215.73499875  .00001330  00000-0  10163-3 0  9993,2 54803  53.2180 343.8108 0001020  86.7889 273.3220 15.08842248 34500,6917.874,95.437,540.444,539.033,0.0
54803.0,STARLINK-5430,PAYLOAD,2023-08-04 15:53:47,15.0884095,0.0001057,53.2177,339.6458,90.6207,269.4907,9.3494e-05,1.201e-05,0.0,0 STARLINK-5430,1 54803U 22175AX  23216.66236110  .00001201  00000-0  93494-4 0  9993,2 54803  53.2177 339.6458 0001057  90.6207 269.4907 15.08840950 34646,6917.877,95.437,540.474,539.011,0.0
54803.0,STARLINK-5430,PAYLOAD,2023-08-05 14:09:11,15.08856481,0.0001146,53.2191,335.4794,80.1157,279.9964,3.9133e-05,3.35e-06,0.0,0 STARLINK-5430,1 54803U 22175AX  23217.58971340  .00000335  00000-0  39133-4 0  9993,2 54803  53.2191 335.4794 0001146  80.1157 279.9964 15.08856481 34786,6917.83,95.437,540.488,538.902,0.0
54803.0,STARLINK-5430,PAYLOAD,2023-08-06 01:16:53,15.08841328,0.0001003,53.2182,333.4001,108.444,251.6661,0.00010655,1.408e-05,0.0,0 STARLINK-5430,1 54803U 22175AX  23218.05339874  .00001408  00000-0  10655-3 0  9995,2 54803  53.2182 333.4001 0001003 108.4440 251.6661 15.08841328 34859,6917.876,95.437,540.435,539.047,0.0
54803.0,STARLINK-5430,PAYLOAD,2023-08-06 14:00:00,15.0882324,9.42e-05,53.2182,331.0225,91.9454,268.1646,-0.00010377,-1.938e-05,0.0,0 STARLINK-5430,1 54803U 22175AX  23218.58334014 -.00001938  00000-0 -10377-3 0  9995,2 54803  53.2182 331.0225 0000942  91.9454 268.1646 15.08823240 34931,6917.932,95.439,540.448,539.145,0.0
54803.0,STARLINK-5430,PAYLOAD,2023-08-07 01:07:41,15.08833189,0.000104,53.2173,328.9413,113.3054,246.8047,2.7718e-06,-2.44e-06,0.0,0 STARLINK-5430,1 54803U 22175AX  23219.04701311 -.00000244  00000-0  27718-5 0  9992,2 54803  53.2173 328.9413 0001040 113.3054 246.8047 15.08833189 35000,6917.901,95.438,540.486,539.047,0.0
54803.0,STARLINK-5430,PAYLOAD,2023-08-07 07:29:13,15.08844,0.0001005,53.2179,327.7505,123.1583,236.9505,3.9544e-05,3.42e-06,0.0,0 STARLINK-5430,1 54803U 22175AX  23219.31196629  .00000342  00000-0  39544-4 0  9999,2 54803  53.2179 327.7505 0001005 123.1583 236.9505 15.08844000 35049,6917.868,95.437,540.428,539.038,0.0
54803.0,STARLINK-5430,PAYLOAD,2023-08-07 13:50:46,15.08851339,9.79e-05,53.2169,326.563,91.8679,268.2425,0.00017663,2.525e-05,0.0,0 STARLINK-5430,1 54803U 22175AX  23219.57692435  .00002525  00000-0  17663-3 0  9995,2 54803  53.2169 326.5630 0000979  91.8679 268.2425 15.08851339 35086,6917.846,95.437,540.388,539.033,0.0
54803.0,STARLINK-5430,PAYLOAD,2023-08-08 07:20:01,15.08840393,9.59e-05,53.2174,323.2933,92.6276,267.4826,0.00036562,5.536e-05,0.0,0 STARLINK-5430,1 54803U 22175AX  23220.30557339  .00005536  00000-0  36562-3 0  9995,2 54803  53.2174 323.2933 0000959  92.6276 267.4826 15.08840393 35198,6917.879,95.438,540.408,539.081,0.0
54803.0,STARLINK-5430,PAYLOAD,2023-08-09 10:21:34,15.08843215,7.41e-05,53.2177,318.2372,86.4819,273.6258,0.00011715,1.577e-05,0.0,0 STARLINK-5430,1 54803U 22175AX  23221.43165046  .00001577  00000-0  11715-3 0  9994,2 54803  53.2177 318.2372 0000741  86.4819 273.6258 15.08843215 35368,6917.871,95.437,540.248,539.223,0.0
54803.0,STARLINK-5430,PAYLOAD,2023-08-10 13:23:07,15.0884199,8.5e-05,53.2162,313.1825,75.2473,284.8614,6.8101e-05,7.96e-06,0.0,0 STARLINK-5430,1 54803U 22175AX  23222.55772997  .00000796  00000-0  68101-4 0  9991,2 54803  53.2162 313.1825 0000850  75.2473 284.8614 15.08841990 35539,6917.874,95.437,540.327,539.151,0.0
54803.0,STARLINK-5430,PAYLOAD,2023-08-11 14:49:17,15.088483,9.46e-05,53.2163,308.4244,83.5937,276.5162,0.00011215,1.498e-05,0.0,0 STARLINK-5430,1 54803U 22175AX  23223.61756483  .00001498  00000-0  11215-3 0  9994,2 54803  53.2163 308.4244 0000946  83.5937 276.5162 15.08848300 35690,6917.855,95.437,540.374,539.066,0.0
54803.0,STARLINK-5430,PAYLOAD,2023-08-11 22:46:13,15.08838592,8.96e-05,53.2157,306.9371,83.686,276.4234,2.8094e-05,1.59e-06,0.0,0 STARLINK-5430,1 54803U 22175AX  23223.94876972  .00000159  00000-0  28094-4 0  9993,2 54803  53.2157 306.9371 0000896  83.6860 276.4234 15.08838592 35744,6917.885,95.438,540.37,539.13,0.0
54803.0,STARLINK-5430,PAYLOAD,2023-08-13 08:09:20,15.08835296,9.39e-05,53.2165,300.693,88.8349,271.2751,5.3157e-05,5.58e-06,0.0,0 STARLINK-5430,1 54803U 22175AX  23225.33981541  .00000558  00000-0  53157-4 0  9998,2 54803  53.2165 300.6930 0000939  88.8349 271.2751 15.08835296 35950,6917.895,95.438,540.409,539.11,0.0
54803.0,STARLINK-5430,PAYLOAD,2023-08-13 22:27:47,15.08844575,9.19e-05,53.2163,298.0165,91.5126,268.5971,2.5511e-05,1.18e-06,0.0,0 STARLINK-5430,1 54803U 22175AX  23225.93596973  .00000118  00000-0  25511-4 0  9990,2 54803  53.2163 298.0165 0000919  91.5126 268.5971 15.08844575 36044,6917.866,95.437,540.367,539.096,0.0
54803.0,STARLINK-5430,PAYLOAD,2023-08-14 23:53:58,15.08838675,0.0001311,53.2157,293.2582,84.9131,275.2011,0.00010531,1.388e-05,0.0,0 STARLINK-5430,1 54803U 22175AX  23226.99581215  .00001388  00000-0  10531-3 0  9995,2 54803  53.2157 293.2582 0001311  84.9131 275.2011 15.08838675 36208,6917.884,95.438,540.656,538.843,0.0
54803.0,STARLINK-5430,PAYLOAD,2023-08-15 09:26:15,15.08871462,0.000137,53.2158,291.4732,81.1936,278.9211,-0.00036551,-6.105e-05,0.0,0 STARLINK-5430,1 54803U 22175AX  23227.39323881 -.00006105  00000-0 -36551-3 0  9997,2 54803  53.2158 291.4732 0001370  81.1936 278.9211 15.08871462 36262,6917.784,95.436,540.597,538.701,0.0
54803.0,STARLINK-5430,PAYLOAD,2023-08-15 14:12:26,15.08843407,0.0001164,53.2161,290.5809,94.0128,266.0997,9.1098e-05,1.162e-05,0.0,0 STARLINK-5430,1 54803U 22175AX  23227.59196905  .00001162  00000-0  91098-4 0  9998,2 54803  53.2161 290.5809 0001164  94.0128 266.0997 15.08843407 36298,6917.87,95.437,540.54,538.93,0.0
54803.0,STARLINK-5430,PAYLOAD,2023-08-16 01:20:08,15.08839164,0.0001146,53.216,288.4987,98.682,261.4302,2.1377e-05,5.2e-07,0.0,0 STARLINK-5430,1 54803U 22175AX  23228.05565330  .00000052  00000-0  21377-4 0  9992,2 54803  53.2160 288.4987 0001146  98.6820 261.4302 15.08839164 36361,6917.883,95.438,540.541,538.955,0.0
54803.0,STARLINK-5430,PAYLOAD,2023-08-17 02:46:18,15.08835343,0.0001167,53.2161,283.7416,99.3262,260.7862,2.356e-05,8.7e-07,0.0,0 STARLINK-5430,1 54803U 22175AX  23229.11549584  .00000087  00000-0  23560-4 0  9997,2 54803  53.2161 283.7416 0001167  99.3262 260.7862 15.08835343 36524,6917.895,95.438,540.567,538.952,0.0
54803.0,STARLINK-5430,PAYLOAD,2023-08-18 10:34:01,15.08832843,0.0001179,53.2174,277.7958,91.6497,268.463,4.0641e-05,3.59e-06,0.0,0 STARLINK-5430,1 54803U 22175AX  23230.44029989  .00000359  00000-0  40641-4 0  9998,2 54803  53.2174 277.7958 0001179  91.6497 268.4630 15.08832843 36722,6917.902,95.438,540.583,538.952,0.0
54803.0,STARLINK-5430,PAYLOAD,2023-08-19 10:24:48,15.08838476,0.0001257,53.2174,273.3351,98.6738,261.4396,7.9776e-05,9.82e-06,0.0,0 STARLINK-5430,1 54803U 22175AX  23231.43389802  .00000982  00000-0  79776-4 0  9994,2 54803  53.2174 273.3351 0001257  98.6738 261.4396 15.08838476 36879,6917.885,95.438,540.62,538.88,0.0
54803.0,STARLINK-5430,PAYLOAD,2023-08-21 02:09:27,15.08841198,0.0001336,53.2167,265.9007,83.9885,276.1259,7.4155e-05,8.93e-06,0.0,0 STARLINK-5430,1 54803U 22175AX  23233.08989784  .00000893  00000-0  74155-4 0  9999,2 54803  53.2167 265.9007 0001336  83.9885 276.1259 15.08841198 37129,6917.877,95.437,540.666,538.817,0.0
54803.0,STARLINK-5430,PAYLOAD,2023-08-22 08:21:46,15.08840426,0.0001336,53.2161,260.2497,93.4682,266.6463,1.3328e-05,-7.6e-07,0.0,0 STARLINK-5430,1 54803U 22175AX  23234.34845815 -.00000076  00000-0  13328-4 0  9994,2 54803  53.2161 260.2497 0001336  93.4682 266.6463 15.08840426 37310,6917.879,95.438,540.668,538.82,0.0
54803.0,STARLINK-5430,PAYLOAD,2023-08-23 11:23:19,15.08843138,0.0001432,53.2162,255.1942,96.5246,263.5909,1.7981e-05,-2e-08,0.0,0 STARLINK-5430,1 54803U 22175AX  23235.47453525 -.00000002  00000-0  17981-4 0  9990,2 54803  53.2162 255.1942 0001432  96.5246 263.5909 15.08843138 37488,6917.871,95.437,540.726,538.745,0.0
54803.0,STARLINK-5430,PAYLOAD,2023-08-24 08:03:20,15.08836839,0.0001489,53.2164,251.3276,106.3591,253.7565,3.1363e-05,2.11e-06,0.0,0 STARLINK-5430,1 54803U 22175AX  23236.33565953  .00000211  00000-0  31363-4 0  9996,2 54803  53.2164 251.3276 0001489 106.3591 253.7565 15.08836839 39776,6917.89,95.438,540.785,538.725,0.0
54803.0,STARLINK-5430,PAYLOAD,2023-08-25 07:54:08,15.08837682,0.0001479,53.2161,246.8671,104.3285,255.7871,2.6005e-05,1.26e-06,0.0,0 STARLINK-5430,1 54803U 22175AX  23237.32926125  .00000126  00000-0  26005-4 0  9990,2 54803  53.2161 246.8671 0001479 104.3285 255.7871 15.08837682 37764,6917.887,95.438,540.776,538.729,0.0
54803.0,STARLINK-5430,PAYLOAD,2023-08-25 11:04:54,15.08839558,0.0001393,53.2159,246.2728,97.3175,262.7975,3.8276e-05,3.21e-06,0.0,0 STARLINK-5430,1 54803U 22175AX  23237.46174013  .00000321  00000-0  38276-4 0  9996,2 54803  53.2159 246.2728 0001393  97.3175 262.7975 15.08839558 39941,6917.882,95.438,540.71,538.783,0.0
54803.0,STARLINK-5430,PAYLOAD,2023-08-26 07:44:55,15.08838598,0.000142,53.2161,242.4077,99.1517,260.9636,5.2955e-05,5.55e-06,0.0,0 STARLINK-5430,1 54803U 22175AX  23238.32286229  .00000555  00000-0  52955-4 0  9994,2 54803  53.2161 242.4077 0001420  99.1517 260.9636 15.08838598 40073,6917.885,95.438,540.732,538.767,0.0
54803.0,STARLINK-5430,PAYLOAD,2023-08-27 01:14:10,15.08837841,0.0001381,53.2161,239.1347,91.5013,268.6137,2.7805e-05,1.55e-06,0.0,0 STARLINK-5430,1 54803U 22175AX  23239.05150508  .00000155  00000-0  27805-4 0  9997,2 54803  53.2161 239.1347 0001381  91.5013 268.6137 15.08837841 38022,6917.887,95.438,540.707,538.797,0.0
